[{"OBJECT_NAME":"STARLINK-1407","OBJECT_ID":"2020-035AY","EPOCH":"2026-03-09T21:23:00.001536","MEAN_MOTION":15.59976169,"ECCENTRICITY":0.00103838,"INCLINATION":53.0348,"RA_OF_ASC_NODE":314.7811,"ARG_OF_PERICENTER":106.6316,"MEAN_ANOMALY":253.5837,"EPHEMERIS_TYPE":0,"CLASSIFICATION_TYPE":"U","NORAD_CAT_ID":45703,"ELEMENT_SET_NO":999,"REV_AT_EPOCH":32032,"BSTAR":0.0017348745,"MEAN_MOTION_DOT":0.00145077,"MEAN_MOTION_DDOT":0},{"OBJECT_NAME":"OBJECT BA","OBJECT_ID":"2023-091BA","EPOCH":"2026-03-09T22:25:33.906144","MEAN_MOTION":15.62263681,"ECCENTRICITY":0.00034332,"INCLINATION":97.5088,"RA_OF_ASC_NODE":144.8532,"ARG_OF_PERICENTER":52.4079,"MEAN_ANOMALY":307.749,"EPHEMERIS_TYPE":0,"CLASSIFICATION_TYPE":"U","NORAD_CAT_ID":57326,"ELEMENT_SET_NO":999,"REV_AT_EPOCH":14775,"BSTAR":0.001421456,"MEAN_MOTION_DOT":0.0012687,"MEAN_MOTION_DDOT":0}]
